ONEWEB-0055             
1 45443U 20020V   21109.04370094 -.00000398  00000-0 -11525-2 0  9992
2 45443  87.8954  35.7984 0001805  74.3346 285.7981 13.11785686 55545
ONEWEB-0093             
1 45444U 20020W   21108.77793067  .00058726  00000-0  16657+0 0  9995
2 45444  87.8945  35.9070 0003008 111.1723 248.9726 13.10603270 55567
ONEWEB-0029             
1 45445U 20020X   21108.81304640  .00000185  00000-0  48243-3 0  9992
2 45445  87.8966  35.8806 0001769  76.4587 283.6738 13.11905952 55540
ONEWEB-0068             
1 45446U 20020Y   21108.84783516  .00000304  00000-0  82832-3 0  9994
2 45446  87.8945  35.8928 0001708  62.8409 297.2893 13.10949134 55506
ONEWEB-0046             
1 45447U 20020Z   21108.31027295 -.00038406  00000-0 -10915+0 0  9997
2 45447  87.8947  36.0035 0002755  65.0704 295.0710 13.11226802 55434
ONEWEB-0063             
1 45448U 20020AA  21109.03869083 -.00000199  00000-0 -59221-3 0  9992
2 45448  87.8939  35.8734 0002561  63.6292 296.5099 13.11931451 55619
ONEWEB-0019             
1 45449U 20020AB  21109.15476002  .00000337  00000-0  92148-3 0  9998
2 45449  87.8950  35.8080 0001760  81.6103 278.5224 13.10907274 55488
ONEWEB-0094             
1 45450U 20020AC  21108.86591526 -.00000015  00000-0 -62325-4 0  9996
2 45450  87.9648  20.6740 0026728 357.8762   2.2258 13.28393746 58002
ONEWEB-0087             
1 45451U 20020AD  21109.19767493 -.00000335  00000-0 -97543-3 0  9996
2 45451  87.8950  35.8275 0001860  77.8090 282.3246 13.11825550 55530
ONEWEB-0082             
1 45452U 20020AE  21108.81794373 -.00000493  00000-0 -14198-2 0  9991
2 45452  87.8943  35.8687 0001799  66.6945 293.4373 13.11788320 55566
ONEWEB-0050             
1 45453U 20020AF  21108.77981172  .00000435  00000-0  37366-4 0  9990
2 45453  87.5496  14.3112 0024434 319.4378  40.5030 14.94572971 58831
ONEWEB-0034             
1 45454U 20020AG  21108.83117111 -.00004472  00000-0 -12658-1 0  9993
2 45454  87.8942  35.8901 0002019  67.7516 292.3826 13.11425332 55481
ONEWEB-0060             
1 45455U 20020AH  21108.76158196 -.00000180  00000-0 -54385-3 0  9991
2 45455  87.8947  35.8974 0001915  76.1034 284.0307 13.11231171 55433
ONEWEB-0086             
1 45456U 20020AJ  21109.15706101 -.00013254  00000-0 -37601-1 0  9997
2 45456  87.8946  35.8164 0001340  72.3244 287.8030 13.11205845 55542
ONEWEB-0088             
1 45457U 20020AK  21108.83291641 -.00000337  00000-0 -98736-3 0  9996
2 45457  87.8942  35.9144 0002030  73.3009 286.8341 13.11357746 55435
ONEWEB-0102             
1 47258U 20100A   21109.25001157  .00000013  00000-0  00000+0 0  9996
2 47258  87.9524   5.4954 0001439  92.0437 328.4305 13.28614897 17464
ONEWEB-0109             
1 47259U 20100B   21109.25001157  .00000013  00000-0  00000+0 0  9997
2 47259  87.8950   5.3680 0002057 106.9679 201.2116 13.14620191 17313
ONEWEB-0110             
1 47260U 20100C   21109.25001157 -.00017143  00000-0 -40571-1 0  9992
2 47260  87.9389   5.3940 0001465  81.0282 319.3151 13.23539923 17475
ONEWEB-0111             
1 47261U 20100D   21109.25001157 -.00021175  00000-0 -49662-1 0  9993
2 47261  87.9407   5.3905 0001391  87.4955 121.1674 13.24167496 17318
ONEWEB-0114             
1 47262U 20100E   21109.25001157 -.00026450  00000-0 -73844-1 0  9994
2 47262  87.8909   5.3731 0001998 102.0184 166.8580 13.12372579 17277
ONEWEB-0117             
1 47263U 20100F   21109.25001157 -.00017720  00000-0 -49029-1 0  9993
2 47263  87.8933   5.4465 0001331  96.1091 203.1182 13.12942668 17287
ONEWEB-0118             
1 47264U 20100G   21109.25001157  .00000013  00000-0  00000+0 0  9993
2 47264  87.9164   5.4241 0002102  94.9952  43.0604 13.19173700 17488
ONEWEB-0119             
1 47265U 20100H   21109.25001157 -.00018220  00000-0 -43156-1 0  9996
2 47265  87.9396   5.4897 0001963 121.5466 161.5063 13.23489882 17441
ONEWEB-0120             
1 47266U 20100J   21109.25001157 -.00016647  00000-0 -39421-1 0  9998
2 47266  87.9374   5.3362 0001698 108.5352 262.9243 13.23497819 17476
ONEWEB-0121             
1 47267U 20100K   21109.25001157 -.00017987  00000-0 -39486-1 0  9998
2 47267  87.9591   5.1977 0010787 250.9544  47.9460 13.28545846 17361
ONEWEB-0122             
1 47268U 20100L   21109.25001157 -.00020325  00000-0 -48108-1 0  9990
2 47268  87.9373   5.4157 0001468  90.5585 145.2592 13.23548081 17303
ONEWEB-0123             
1 47269U 20100M   21108.91667824 -.00026981  00000-0 -64249-1 0  9990
2 47269  87.9420   5.5120 0001790 102.5376 277.4677 13.23179672  1714
ONEWEB-0124             
1 47270U 20100N   21109.25001157 -.00016434  00000-0 -39000-1 0  9990
2 47270  87.9368   5.4393 0001771  95.6455 253.3922 13.23353788 17318
ONEWEB-0125             
1 47271U 20100P   21109.25001157 -.00020297  00000-0 -48374-1 0  9997
2 47271  87.9338   5.3970 0001492 116.8139 120.5456 13.23084354 17374
ONEWEB-0126             
1 47272U 20100Q   21109.25001157 -.00017484  00000-0 -41754-1 0  9997
2 47272  87.9350   5.4947 0001801  94.7922 321.0561 13.22933118 17445
ONEWEB-0127             
1 47273U 20100R   21109.25001157 -.00019913  00000-0 -47297-1 0  9995
2 47273  87.9345   5.4317 0001567  95.2485 150.6256 13.23310417 17472
ONEWEB-0128             
1 47274U 20100S   21109.25001157  .00000013  00000-0  00000+0 0  9994
2 47274  87.9602   5.4051 0001583 101.9812  33.8961 13.28588218 17499
ONEWEB-0129             
1 47275U 20100T   21109.25001157 -.00022439  00000-0 -49255-1 0  9990
2 47275  87.9601   5.2857 0001831  89.3557 114.3072 13.28594403 17426
ONEWEB-0130             
1 47276U 20100U   21109.25001157 -.00017727  00000-0 -47583-1 0  9997
2 47276  87.9038   5.3886 0001720  97.7740 333.3288 13.15015132 17399
ONEWEB-0131             
1 47277U 20100V   21109.25001157 -.00105779  00000-0 -25419+0 0  9995
2 47277  87.9340   5.3332 0000944  84.2250 317.7622 13.23130460 17430
ONEWEB-0132             
1 47278U 20100W   21109.25001157 -.00021113  00000-0 -49914-1 0  9993
2 47278  87.9409   5.4926 0001937  94.7629 108.2413 13.23630686 17331
ONEWEB-0133             
1 47279U 20100X   21109.25001157  .00000013  00000-0  00000+0 0  9999
2 47279  87.9560   5.3410 0002030  87.6125 163.9803 13.28574452 17484
ONEWEB-0134             
1 47280U 20100Y   21109.25001157 -.00018927  00000-0 -41473-1 0  9997
2 47280  87.9579   5.4286 0002255 114.5553 154.5228 13.28693017 17455
ONEWEB-0135             
1 47281U 20100Z   21109.25001157  .00000013  00000-0  00000+0 0  9992
2 47281  87.9366   5.4102 0001855  84.6903  24.3195 13.23403728 17492
ONEWEB-0136             
1 47282U 20100AA  21109.25001157 -.00018789  00000-0 -44503-1 0  9992
2 47282  87.9395   5.3302 0001370  88.8946 186.9717 13.23492544 17412
ONEWEB-0137             
1 47283U 20100AB  21108.91667824 -.00029038  00000-0 -70854-1 0  9991
2 47283  87.9299   5.5626 0001580 102.0540  15.1258 13.21553083  1701
ONEWEB-0138             
1 47284U 20100AC  21109.25001157  .00000013  00000-0  00000+0 0  9995
2 47284  87.9624   5.4634 0001799 128.1565 146.4994 13.27663044 17392
ONEWEB-0139             
1 47285U 20100AD  21109.25001157 -.00016421  00000-0 -39054-1 0  9991
2 47285  87.9360   5.4298 0001157 101.7339 258.6903 13.23206572 17470
ONEWEB-0140             
1 47286U 20100AE  21109.25001157 -.00016996  00000-0 -40333-1 0  9991
2 47286  87.9371   5.4332 0001473  90.6587 227.6468 13.23358391 17439
ONEWEB-0141             
1 47287U 20100AF  21109.25001157  .00000013  00000-0  00000+0 0  9998
2 47287  87.9081   5.4744 0001880  90.1899  15.5854 13.16766340 17430
ONEWEB-0142             
1 47288U 20100AG  21109.25001157  .00000013  00000-0  00000+0 0  9999
2 47288  87.9330   5.5082 0001776  84.7830 196.3228 13.23521758 17424
ONEWEB-0143             
1 47289U 20100AH  21109.25001157 -.00016362  00000-0 -36282-1 0  9999
2 47289  87.9634   5.3356 0001987  91.1464 249.4672 13.27889547 17388
ONEWEB-0144             
1 47290U 20100AJ  21109.25001157  .00000013  00000-0  00000+0 0  9992
2 47290  87.8976   5.3549 0002105  99.6637 224.0143 13.16829642 17324
ONEWEB-0145             
1 47291U 20100AK  21109.16667824  .00028003  00000-0  66146-1 0  9996
2 47291  87.9366   5.4307 0001832  87.3803 171.4347 13.23251376 17509
ONEWEB-0146             
1 47292U 20100AL  21109.25001157 -.00023256  00000-0 -51133-1 0  9995
2 47292  87.9599   5.4657 0001833 102.9939  31.1780 13.28490235 17429
ONEWEB-0147             
1 47293U 20100AM  21108.91667824 -.00192676  00000-0 -46571+0 0  9998
2 47293  87.9377   5.4971 0006088 237.6335 183.3236 13.23372535  1714
ONEWEB-0115             
1 48042U 21025A   21109.16667824 -.00916076  00000-0 -24217-1 0  9999
2 48042  87.3974 341.2376 0007166 166.9978 141.5359 15.40996229  5134
ONEWEB-0152             
1 48043U 21025B   21109.16667824 -.00939364  00000-0 -29394-1 0  9996
2 48043  87.4001 341.2522 0010037 154.1718  40.0098 15.35863510  5113
ONEWEB-0153             
1 48044U 21025C   21108.91667824 -.00982262  00000-0 -34033-1 0  9990
2 48044  87.4025 341.3589 0009262 179.9555 327.0281 15.32803802  1816
ONEWEB-0154             
1 48045U 21025D   21109.16667824 -.00990301  00000-0 -38200-1 0  9992
2 48045  87.3994 341.2797 0007103 161.7733 179.7827 15.28957837  5129
ONEWEB-0116             
1 48046U 21025E   21109.16667824 -.00914611  00000-0 -24582-1 0  9991
2 48046  87.3953 341.2325 0006871 163.9796 134.7662 15.40497031  5123
ONEWEB-0150             
1 48047U 21025F   21109.16667824 -.00928479  00000-0 -27514-1 0  9997
2 48047  87.3997 341.2442 0008914 148.2000  89.8639 15.37533113  5117
ONEWEB-0107             
1 48048U 21025G   21108.91667824 -.00988025  00000-0 -33838-1 0  9999
2 48048  87.3998 341.3465 0009426 176.4616 343.1483 15.33185744  1781
ONEWEB-0101             
1 48049U 21025H   21108.91667824 -.01001478  00000-0 -39807-1 0  9991
2 48049  87.3966 341.3784 0008677 156.0608 197.9303 15.27989710  1798
